H1 CPF  1  DLR 2021 08 28 10  7402 technosat            
H2  1704205 6203    42829 2021 08 28 00 00 00 2021 09 04 00 00 00    60 1 1  0 0 0
H9
10 0 59455  28800.000000  0       3188598.978       -305441.019       6194742.422
10 0 59455  28860.000000  0       2783667.167       -407691.768       6381043.305
10 0 59455  28920.000000  0       2366193.813       -504635.330       6540397.807
10 0 59455  28980.000000  0       1937979.992       -595763.793       6672138.804
10 0 59455  29040.000000  0       1500875.044       -680609.656       6775715.043
10 0 59455  29100.000000  0       1056768.532       -758748.139       6850693.257
10 0 59455  29160.000000  0        607582.121       -829799.185       6896759.731
10 0 59455  29220.000000  0        155261.394       -893429.255       6913721.520
10 0 59455  29280.000000  0       -298232.493       -949352.868       6901507.149
10 0 59455  29340.000000  0       -750931.159       -997333.869       6860166.885
10 0 59455  29400.000000  0      -1200867.426      -1037186.428       6789872.552
10 0 59455  29460.000000  0      -1646083.730      -1068775.734       6690916.848
10 0 59455  29520.000000  0      -2084640.483      -1092018.433       6563712.235
10 0 59455  29580.000000  0      -2514624.381      -1106882.780       6408789.405
10 0 59455  29640.000000  0      -2934156.684      -1113388.506       6226795.371
10 0 59455  29700.000000  0      -3341401.490      -1111606.430       6018491.058
10 0 59455  29760.000000  0      -3734573.841      -1101657.814       5784748.357
10 0 59455  29820.000000  0      -4111947.640      -1083713.464       5526546.756
10 0 59455  29880.000000  0      -4471863.419      -1057992.532       5244969.500
10 0 59455  29940.000000  0      -4812735.814      -1024761.034       4941199.247
10 0 59455  30000.000000  0      -5133060.767       -984330.117       4616513.340
10 0 59455  30060.000000  0      -5431422.429       -937054.091       4272278.595
10 0 59455  30120.000000  0      -5706499.647       -883328.175       3909945.697
10 0 59455  30180.000000  0      -5957072.082       -823586.031       3531043.252
10 0 59455  30240.000000  0      -6182025.920       -758297.083       3137171.486
10 0 59455  30300.000000  0      -6380359.212       -687963.618       2729995.608
10 0 59455  30360.000000  0      -6551186.754       -613117.673       2311238.771
10 0 59455  30420.000000  0      -6693744.393       -534317.749       1882674.666
10 0 59455  30480.000000  0      -6807392.729       -452145.391       1446119.881
10 0 59455  30540.000000  0      -6891620.241       -367201.631       1003426.037
10 0 59455  30600.000000  0      -6946045.802       -280103.294        556471.732
10 0 59455  30660.000000  0      -6970420.569       -191479.218        107154.356
10 0 59455  30720.000000  0      -6964629.259       -101966.392       -342618.220
10 0 59455  30780.000000  0      -6928690.736        -12206.030       -790936.031
10 0 59455  30840.000000  0      -6862757.897         77160.349      -1235895.404
10 0 59455  30900.000000  0      -6767116.920        165494.829      -1675607.221
10 0 59455  30960.000000  0      -6642185.986        252166.982      -2108205.095
10 0 59455  31020.000000  0      -6488513.413        336557.720      -2531853.569
10 0 59455  31080.000000  0      -6306775.027        418063.066      -2944756.222
10 0 59455  31140.000000  0      -6097770.823        496097.855      -3345163.483
10 0 59455  31200.000000  0      -5862421.101        570099.304      -3731380.101
10 0 59455  31260.000000  0      -5601762.103        639530.419      -4101772.364
10 0 59455  31320.000000  0      -5316941.125        703883.259      -4454775.036
10 0 59455  31380.000000  0      -5009211.080        762682.006      -4788897.949
10 0 59455  31440.000000  0      -4679924.619        815485.834      -5102732.149
10 0 59455  31500.000000  0      -4330527.893        861891.589      -5394955.690
10 0 59455  31560.000000  0      -3962553.907        901536.224      -5664339.032
10 0 59455  31620.000000  0      -3577615.533        934098.979      -5909750.015
10 0 59455  31680.000000  0      -3177398.169        959303.315      -6130158.347
10 0 59455  31740.000000  0      -2763652.254        976918.595      -6324639.607
10 0 59455  31800.000000  0      -2338185.538        986761.557      -6492378.959
10 0 59455  31860.000000  0      -1902855.024        988697.520      -6632674.344
10 0 59455  31920.000000  0      -1459558.801        982641.303      -6744939.103
10 0 59455  31980.000000  0      -1010227.822        968557.846      -6828704.174
10 0 59455  32040.000000  0       -556817.550        946462.582      -6883619.851
10 0 59455  32100.000000  0       -101299.596        916421.544      -6909457.071
10 0 59455  32160.000000  0        354346.661        878551.192      -6906108.353
10 0 59455  32220.000000  0        808142.592        833017.950      -6873588.360
10 0 59455  32280.000000  0       1258118.952        780037.483      -6812033.856
10 0 59455  32340.000000  0       1702324.338        719873.704      -6721703.082
10 0 59455  32400.000000  0       2138833.527        652837.497      -6602974.755
10 0 59455  32460.000000  0       2565755.787        579285.214      -6456346.658
10 0 59455  32520.000000  0       2981243.106        499616.932      -6282433.650
10 0 59455  32580.000000  0       3383498.130        414274.389      -6081965.225
10 0 59455  32640.000000  0       3770781.948        323738.684      -5855782.705
10 0 59455  32700.000000  0       4141421.667        228527.756      -5604835.927
10 0 59455  32760.000000  0       4493817.735        129193.688      -5330179.548
10 0 59455  32820.000000  0       4826451.098         26319.762      -5032968.905
10 0 59455  32880.000000  0       5137889.998        -79482.703      -4714455.295
10 0 59455  32940.000000  0       5426796.345       -187577.695      -4375980.890
10 0 59455  33000.000000  0       5691931.728       -297308.013      -4018973.237
10 0 59455  33060.000000  0       5932163.004       -407998.919      -3644939.374
10 0 59455  33120.000000  0       6146467.438       -518961.948      -3255459.589
10 0 59455  33180.000000  0       6333937.410       -629498.840      -2852180.809
10 0 59455  33240.000000  0       6493784.582       -738905.554      -2436809.613
10 0 59455  33300.000000  0       6625343.509       -846476.330      -2011104.931
10 0 59455  33360.000000  0       6728074.656       -951507.792      -1576870.499
10 0 59455  33420.000000  0       6801566.845      -1053303.089      -1135947.083
10 0 59455  33480.000000  0       6845539.059      -1151176.019       -690204.502
10 0 59455  33540.000000  0       6859841.663      -1244455.117       -241533.546
10 0 59455  33600.000000  0       6844457.022      -1332487.705        208162.290
10 0 59455  33660.000000  0       6799499.414      -1414643.843        656975.169
10 0 59455  33720.000000  0       6725214.252      -1490320.176       1103001.220
10 0 59455  33780.000000  0       6621976.776      -1558943.686       1544348.788
10 0 59455  33840.000000  0       6490290.135      -1619975.272       1979146.754
10 0 59455  33900.000000  0       6330782.720      -1672913.096       2405552.728
10 0 59455  33960.000000  0       6144204.935      -1717295.729       2821760.980
10 0 59455  34020.000000  0       5931425.445      -1752705.147       3226010.199
10 0 59455  34080.000000  0       5693426.844      -1778769.480       3616591.037
10 0 59455  34140.000000  0       5431300.812      -1795165.506       3991853.348
10 0 59455  34200.000000  0       5146242.806      -1801620.873       4350213.130
10 0 59455  34260.000000  0       4839546.327      -1797916.037       4690159.123
10 0 59455  34320.000000  0       4512596.813      -1783885.898       5010259.072
10 0 59455  34380.000000  0       4166865.152      -1759421.181       5309165.669
10 0 59455  34440.000000  0       3803900.796      -1724469.545       5585622.094
10 0 59455  34500.000000  0       3425324.541      -1679036.370       5838467.070
10 0 59455  34560.000000  0       3032821.113      -1623185.241       6066639.441
10 0 59455  34620.000000  0       2628131.590      -1557038.143       6269182.362
10 0 59455  34680.000000  0       2213045.610      -1480775.376       6445247.105
10 0 59455  34740.000000  0       1789393.383      -1394635.174       6594096.367
10 0 59455  34800.000000  0       1359037.605      -1298912.994       6715107.158
10 0 59455  34860.000000  0        923865.249      -1193960.504       6807773.177
10 0 59455  34920.000000  0        485779.369      -1080184.290       6871706.711
10 0 59455  34980.000000  0         46690.865       -958044.284       6906640.108
10 0 59455  35040.000000  0       -391489.727       -828051.916       6912426.743
10 0 59455  35100.000000  0       -826860.387       -690768.032       6889041.613
10 0 59455  35160.000000  0      -1257535.762       -546800.494       6836581.451
10 0 59455  35220.000000  0      -1681655.200       -396801.530       6755264.342
10 0 59455  35280.000000  0      -2097390.650       -241464.847       6645428.931
10 0 59455  35340.000000  0      -2502954.458        -81522.497       6507533.197
10 0 59455  35400.000000  0      -2896607.023         82258.502       6342152.730
10 0 59455  35460.000000  0      -3276664.244        249079.728       6149978.572
10 0 59455  35520.000000  0      -3641504.796        418115.137       5931814.606
10 0 59455  35580.000000  0      -3989577.169        588515.045       5688574.421
10 0 59455  35640.000000  0      -4319406.375        759410.252       5421277.734
10 0 59455  35700.000000  0      -4629600.383        929916.367       5131046.408
10 0 59455  35760.000000  0      -4918856.244       1099138.271       4819100.000
10 0 59455  35820.000000  0      -5185965.823       1266174.697       4486750.807
10 0 59455  35880.000000  0      -5429821.084       1430122.880       4135398.523
10 0 59455  35940.000000  0      -5649418.960       1590083.302       3766524.526
99
